0 COSMOS 1038
1 11047U 78091E   13281.83317479 -.00000008  00000-0  52863-4 0  5358
2 11047 074.0337 143.0554 0006224 216.3101 271.3263 12.45870461183913
0 COSMOS 1038
1 11047U 78091E   13284.07907122  .00000025  00000-0  28186-3 0  5366
2 11047 074.0333 140.0947 0006188 213.0973 264.3353 12.45870245184195
0 COSMOS 1038
1 11047U 78091E   13286.09904808  .00000026  00000-0  28914-3 0  5379
2 11047 074.0329 137.4318 0006149 210.1819 324.1025 12.45870434184445
0 COSMOS 1038
1 11047U 78091E   13288.33297698 -.00000004  00000-0  80154-4 0  5383
2 11047 074.0327 134.4868 0006112 206.8814 263.5395 12.45870846184721
0 COSMOS 1038
1 11047U 78091E   13290.41121206 -.00000026  00000-0 -68374-4 0  5392
2 11047 074.0326 131.7470 0006080 203.8576 224.6272 12.45871088184984
0 COSMOS 1038
1 11047U 78091E   13292.50252545 -.00000026  00000-0 -74349-4 0  5406
2 11047 074.0327 128.9898 0006045 200.8354 244.3538 12.45871041185242
0 COSMOS 1038
1 11047U 78091E   13294.51090880 -.00000010  00000-0  42780-4 0  5418
2 11047 074.0328 126.3420 0006011 197.8460 252.2193 12.45870858185499
